NORAD_CAT_ID,OBJECT_NAME,OBJECT_TYPE,EPOCH,MEAN_MOTION,ECCENTRICITY,INCLINATION,RA_OF_ASC_NODE,ARG_OF_PERICENTER,MEAN_ANOMALY,BSTAR,MEAN_MOTION_DOT,MEAN_MOTION_DDOT,TLE_LINE0,TLE_LINE1,TLE_LINE2,SEMIMAJOR_AXIS,PERIOD,APOGEE,PERIGEE,DECAYED
52689.0,STARLINK-4078,PAYLOAD,2023-03-29 20:13:53,15.08856532,0.0001069,53.2153,293.7861,75.2884,284.8227,0.0014537,0.00022934,0.0,0 STARLINK-4078,1 52689U 22053AK  23088.84298477  .00022934  00000-0  14537-2 0  9994,2 52689  53.2153 293.7861 0001069  75.2884 284.8227 15.08856532 48331,6917.83,95.437,540.434,538.955,0.0
52689.0,STARLINK-4078,PAYLOAD,2023-03-30 20:04:40,15.08858174,0.0001014,53.2147,289.3247,89.6887,270.4222,0.0013786,0.00021731,0.0,0 STARLINK-4078,1 52689U 22053AK  23089.83658305  .00021731  00000-0  13786-2 0  9993,2 52689  53.2147 289.3247 0001014  89.6887 270.4222 15.08858174 48481,6917.825,95.436,540.391,538.988,0.0
52689.0,STARLINK-4078,PAYLOAD,2023-03-31 13:33:55,15.08845954,0.0001542,53.2159,286.0547,83.5524,276.5644,0.00048079,7.373e-05,0.0,0 STARLINK-4078,1 52689U 22053AK  23090.56522464  .00007373  00000-0  48079-3 0  9991,2 52689  53.2159 286.0547 0001542  83.5524 276.5644 15.08845954 48597,6917.862,95.437,540.794,538.66,0.0
52689.0,STARLINK-4078,PAYLOAD,2023-04-01 13:24:42,15.08830005,8.62e-05,53.2154,281.5938,89.6661,270.4429,-3.0716e-05,-7.76e-06,0.0,0 STARLINK-4078,1 52689U 22053AK  23091.55882852 -.00000776  00000-0 -30716-4 0  9993,2 52689  53.2154 281.5938 0000862  89.6661 270.4429 15.08830005 48741,6917.911,95.438,540.372,539.18,0.0
52689.0,STARLINK-4078,PAYLOAD,2023-04-01 19:46:15,15.08834128,0.0001025,53.2154,280.4051,99.7846,260.3261,0.00019583,2.83e-05,0.0,0 STARLINK-4078,1 52689U 22053AK  23091.82379019  .00002830  00000-0  19583-3 0  9998,2 52689  53.2154 280.4051 0001025  99.7846 260.3261 15.08834128 49185,6917.898,95.438,540.472,539.054,0.0
52689.0,STARLINK-4078,PAYLOAD,2023-04-02 13:15:29,15.08846258,0.0001007,53.2155,277.1334,96.1679,263.9428,0.00054223,8.354e-05,0.0,0 STARLINK-4078,1 52689U 22053AK  23092.55243046  .00008354  00000-0  54223-3 0  9996,2 52689  53.2155 277.1334 0001007  96.1679 263.9428 15.08846258 48896,6917.861,95.437,540.423,539.03,0.0
52689.0,STARLINK-4078,PAYLOAD,2023-04-02 19:37:02,15.08851021,0.0001103,53.2153,275.9447,93.1653,266.9465,0.00055567,8.569e-05,0.0,0 STARLINK-4078,1 52689U 22053AK  23092.81738858  .00008569  00000-0  55567-3 0  9995,2 52689  53.2153 275.9447 0001103  93.1653 266.9465 15.08851021 49339,6917.847,95.437,540.475,538.949,0.0
52689.0,STARLINK-4078,PAYLOAD,2023-04-03 13:06:17,15.08838975,0.0001232,53.2156,272.6728,90.5979,269.5154,3.0914e-05,2.04e-06,0.0,0 STARLINK-4078,1 52689U 22053AK  23093.54603019  .00000204  00000-0  30914-4 0  9994,2 52689  53.2156 272.6728 0001232  90.5979 269.5154 15.08838975 49048,6917.884,95.438,540.601,538.896,0.0
52689.0,STARLINK-4078,PAYLOAD,2023-04-03 21:03:12,15.08844542,0.0001356,53.2161,271.1856,89.2239,270.8908,0.00017465,2.493e-05,0.0,0 STARLINK-4078,1 52689U 22053AK  23093.87722979  .00002493  00000-0  17465-3 0  9994,2 52689  53.2161 271.1856 0001356  89.2239 270.8908 15.08844542 49499,6917.867,95.437,540.67,538.793,0.0
52689.0,STARLINK-4078,PAYLOAD,2023-04-04 11:21:40,15.08843615,0.000151,53.2157,268.5089,86.8968,273.2197,0.00010484,1.381e-05,0.0,0 STARLINK-4078,1 52689U 22053AK  23094.47339054  .00001381  00000-0  10484-3 0  9998,2 52689  53.2157 268.5089 0001510  86.8968 273.2197 15.08843615 49583,6917.869,95.437,540.779,538.69,0.0
52689.0,STARLINK-4078,PAYLOAD,2023-04-05 11:12:28,15.08840708,0.0001342,53.214,264.0463,93.3755,266.7391,0.00026338,3.906e-05,0.0,0 STARLINK-4078,1 52689U 22053AK  23095.46699213  .00003906  00000-0  26338-3 0  9994,2 52689  53.2140 264.0463 0001342  93.3755 266.7391 15.08840708 49338,6917.878,95.438,540.672,538.815,0.0
52689.0,STARLINK-4078,PAYLOAD,2023-04-05 17:34:00,15.08839006,0.0001139,53.2155,262.858,92.3968,267.7155,0.00027852,4.147e-05,0.0,0 STARLINK-4078,1 52689U 22053AK  23095.73195322  .00004147  00000-0  27852-3 0  9996,2 52689  53.2155 262.8580 0001139  92.3968 267.7155 15.08839006 49775,6917.883,95.438,540.536,538.96,0.0
52689.0,STARLINK-4078,PAYLOAD,2023-04-06 11:03:15,15.08837012,0.0001186,53.2146,259.5874,89.0775,271.0353,3.7302e-05,3.06e-06,0.0,0 STARLINK-4078,1 52689U 22053AK  23096.46059367  .00000306  00000-0  37302-4 0  9990,2 52689  53.2146 259.5874 0001186  89.0775 271.0353 15.08837012 49486,6917.89,95.438,540.575,538.934,0.0
52689.0,STARLINK-4078,PAYLOAD,2023-04-06 20:35:33,15.08840439,0.0001258,53.215,257.8031,94.5695,265.5441,7.2304e-05,8.63e-06,0.0,0 STARLINK-4078,1 52689U 22053AK  23096.85803137  .00000863  00000-0  72304-4 0  9994,2 52689  53.2150 257.8031 0001258  94.5695 265.5441 15.08840439 49943,6917.879,95.438,540.614,538.874,0.0
52689.0,STARLINK-4078,PAYLOAD,2023-04-07 10:54:02,15.08838497,0.000116,53.2146,255.1257,92.3808,267.7317,5.9182e-05,6.54e-06,0.0,0 STARLINK-4078,1 52689U 22053AK  23097.45419364  .00000654  00000-0  59182-4 0  9993,2 52689  53.2146 255.1257 0001160  92.3808 267.7317 15.08838497 50032,6917.885,95.438,540.552,538.948,0.0
52689.0,STARLINK-4078,PAYLOAD,2023-04-07 17:15:34,15.08842602,0.0001122,53.2146,253.9372,85.1689,274.9431,0.00010084,1.318e-05,0.0,0 STARLINK-4078,1 52689U 22053AK  23097.71915031  .00001318  00000-0  10084-3 0  9999,2 52689  53.2146 253.9372 0001122  85.1689 274.9431 15.08842602 49679,6917.872,95.437,540.514,538.961,0.0
52689.0,STARLINK-4078,PAYLOAD,2023-04-08 10:44:49,15.08833991,8.32e-05,53.2137,250.6652,78.1796,281.9289,5.7694e-05,6.3e-06,0.0,0 STARLINK-4078,1 52689U 22053AK  23098.44779907  .00000630  00000-0  57694-4 0  9995,2 52689  53.2137 250.6652 0000832  78.1796 281.9289 15.08833991 49784,6917.899,95.438,540.339,539.188,0.0
52689.0,STARLINK-4078,PAYLOAD,2023-04-09 10:35:37,15.08837158,6.98e-05,53.2159,246.2059,42.8377,317.2669,-1.0862e-06,-3.05e-06,0.0,0 STARLINK-4078,1 52689U 22053AK  23099.44140194 -.00000305  00000-0 -10862-5 0  9994,2 52689  53.2159 246.2059 0000698  42.8377 317.2669 15.08837158 50330,6917.889,95.438,540.237,539.271,0.0
52689.0,STARLINK-4078,PAYLOAD,2023-04-09 16:57:09,15.08833176,8.16e-05,53.2173,245.0176,78.4634,281.645,0.00019409,2.802e-05,0.0,0 STARLINK-4078,1 52689U 22053AK  23099.70635890  .00002802  00000-0  19409-3 0  9991,2 52689  53.2173 245.0176 0000816  78.4634 281.6450 15.08833176 49972,6917.901,95.438,540.331,539.202,0.0
52689.0,STARLINK-4078,PAYLOAD,2023-04-10 08:51:00,15.08834742,9.48e-05,53.2159,242.0427,94.4857,265.6243,0.00016793,2.385e-05,0.0,0 STARLINK-4078,1 52689U 22053AK  23100.36875907  .00002385  00000-0  16793-3 0  9990,2 52689  53.2159 242.0427 0000948  94.4857 265.6243 15.08834742 50472,6917.896,95.438,540.417,539.106,0.0
52689.0,STARLINK-4078,PAYLOAD,2023-04-10 18:23:19,15.08841202,8.27e-05,53.2156,240.2598,84.896,275.2127,0.00026066,3.863e-05,0.0,0 STARLINK-4078,1 52689U 22053AK  23100.76619323  .00003863  00000-0  26066-3 0  9998,2 52689  53.2156 240.2598 0000827  84.8960 275.2127 15.08841202 50132,6917.877,95.437,540.314,539.17,0.0
52689.0,STARLINK-4078,PAYLOAD,2023-04-11 11:52:34,15.08829031,7.35e-05,53.2144,236.9884,121.2422,238.8642,0.0002154,3.141e-05,0.0,0 STARLINK-4078,1 52689U 22053AK  23101.49484008  .00003141  00000-0  21540-3 0  9990,2 52689  53.2144 236.9884 0000735 121.2422 238.8642 15.08829031 50645,6917.914,95.438,540.287,539.27,0.0
52689.0,STARLINK-4078,PAYLOAD,2023-04-12 02:11:01,15.08845676,0.0001416,53.2139,234.3098,89.6889,270.4266,5.9976e-05,6.67e-06,0.0,0 STARLINK-4078,1 52689U 22053AK  23102.09099394  .00000667  00000-0  59976-4 0  9992,2 52689  53.2139 234.3098 0001416  89.6889 270.4266 15.08845676 50332,6917.863,95.437,540.708,538.748,0.0
52689.0,STARLINK-4078,PAYLOAD,2023-04-12 14:54:06,15.0884657,0.000178,53.2139,231.9305,89.6443,270.4753,2.1083e-05,4.7e-07,0.0,0 STARLINK-4078,1 52689U 22053AK  23102.62091331  .00000047  00000-0  21083-4 0  9994,2 52689  53.2139 231.9305 0001780  89.6443 270.4753 15.08846570 50814,6917.86,95.437,540.957,538.494,0.0
52689.0,STARLINK-4078,PAYLOAD,2023-04-12 18:04:53,15.08840331,0.0001592,53.213,231.3391,80.7684,279.3489,2.2796e-05,7.5e-07,0.0,0 STARLINK-4078,1 52689U 22053AK  23102.75339683  .00000075  00000-0  22796-4 0  9996,2 52689  53.2130 231.3391 0001592  80.7684 279.3489 15.08840331 50435,6917.879,95.438,540.846,538.643,0.0
52689.0,STARLINK-4078,PAYLOAD,2023-04-13 14:44:53,15.08848123,0.0001305,53.2145,227.47,79.766,280.3479,8.998e-05,1.145e-05,0.0,0 STARLINK-4078,1 52689U 22053AK  23103.61450987  .00001145  00000-0  89980-4 0  9990,2 52689  53.2145 227.4700 0001305  79.7660 280.3479 15.08848123 50567,6917.856,95.437,540.623,538.818,0.0
52689.0,STARLINK-4078,PAYLOAD,2023-04-14 11:24:54,15.08839084,0.0001386,53.2168,223.6081,79.4418,280.673,4.2116e-05,3.82e-06,0.0,0 STARLINK-4078,1 52689U 22053AK  23104.47563622  .00000382  00000-0  42116-4 0  9998,2 52689  53.2168 223.6081 0001386  79.4418 280.6730 15.08839084 50692,6917.883,95.438,540.707,538.789,0.0
52689.0,STARLINK-4078,PAYLOAD,2023-04-14 17:46:26,15.08846881,0.0001245,53.214,222.4131,89.5003,270.6132,0.00014793,2.068e-05,0.0,0 STARLINK-4078,1 52689U 22053AK  23104.74058712  .00002068  00000-0  14793-3 0  9999,2 52689  53.2140 222.4131 0001245  89.5003 270.6132 15.08846881 50734,6917.859,95.437,540.586,538.863,0.0
52689.0,STARLINK-4078,PAYLOAD,2023-04-15 12:51:05,15.08822126,6.52e-05,53.2156,218.848,84.2841,275.8225,0.00015359,2.156e-05,0.0,0 STARLINK-4078,1 52689U 22053AK  23105.53548575  .00002156  00000-0  15359-3 0  9995,2 52689  53.2156 218.8480 0000652  84.2841 275.8225 15.08822126 51254,6917.935,95.439,540.251,539.349,0.0
52689.0,STARLINK-4078,PAYLOAD,2023-04-15 14:26:28,15.08846036,9.56e-05,53.2161,218.5488,82.0207,278.0894,1.2456e-05,-8.9e-07,0.0,0 STARLINK-4078,1 52689U 22053AK  23105.60171467 -.00000089  00000-0  12456-4 0  9995,2 52689  53.2161 218.5488 0000956  82.0207 278.0894 15.08846036 50863,6917.862,95.437,540.388,539.066,0.0
